*******************************************************************************
Ephemeris / WWW_USER Fri Mar  7 10:31:33 2025 Pasadena, USA      / Horizons    
*******************************************************************************
Target body name: (2018 RY7)                      {source: JPL#20}
Center body name: Earth (399)                     {source: DE441}
Center-site name: Mauna Kea
*******************************************************************************
Start time      : A.D. 2018-Sep-26 04:24:00.0000 UT      
Stop  time      : A.D. 2018-Sep-26 16:02:00.0000 UT      
Step-size       : 1 minutes
*******************************************************************************
Target pole/equ : undefined
Target radii    : undefined                                                    
Center geodetic : 204.5278, 19.8260847, 4.21024   {E-lon(deg),Lat(deg),Alt(km)}
Center cylindric: 204.5278, 6006.35451, 2151.0229 {E-lon(deg),Dxy(km),Dz(km)}
Center pole/equ : ITRF93                          {East-longitude positive}
Center radii    : 6378.137, 6378.137, 6356.752 km {Equator_a, b, pole_c}       
Target primary  : Sun
Vis. interferer : MOON (R_eq= 1737.400) km        {source: DE441}
Rel. light bend : Sun                             {source: DE441}
Rel. lght bnd GM: 1.3271E+11 km^3/s^2                                          
Small-body perts: Yes                             {source: SB441-N16}
Atmos refraction: NO (AIRLESS)
RA format       : HMS
Time format     : CAL 
Calendar mode   : Mixed Julian/Gregorian
RTS-only print  : NO       
EOP file        : eop.250306.p250602                                           
EOP coverage    : DATA-BASED 1962-JAN-20 TO 2025-MAR-06. PREDICTS-> 2025-JUN-01
Units conversion: 1 au= 149597870.700 km, c= 299792.458 km/s, 1 day= 86400.0 s 
Table cut-offs 1: Elevation (-90.0deg=NO ),Airmass (>38.000=NO), Daylight (YES)
Table cut-offs 2: Solar elongation (  0.0,180.0=NO ),Local Hour Angle( 0.0=NO )
Table cut-offs 3: RA/DEC angular rate (     0.0=NO )                           
*******************************************************************************
Initial IAU76/J2000 heliocentric ecliptic osculating elements (au, days, deg.):
  EPOCH=  2458422.5 ! 2018-Oct-31.00 (TDB)         Residual RMS= .22459        
   EC= .1470549687381346   QR= .8667733479166969   TP= 2458516.8896767548      
   OM= 2.838668085760325   W=  136.9006026425241   IN= 13.35135890147074       
  Equivalent ICRF heliocentric cartesian coordinates (au, au/d):
   X= 8.791791513870114E-01  Y= 4.508422091141234E-01  Z= 3.244113040133835E-01
  VX=-1.085418916943652E-02 VY= 1.006005810562689E-02 VZ= 7.673980932675997E-03
Asteroid physical parameters (km, seconds, rotational period in hours):        
   GM= n.a.                RAD= n.a.               ROTPER= n.a.                
   H= 24.4                 G= .150                 B-V= n.a.                   
                           ALBEDO= n.a.            STYP= n.a.                  
*******************************************************************************
 Date__(UT)__HR:MN     R.A._________(ICRF)_________DEC
******************************************************
$$SOE
 2018-Sep-26 14:39  m  00 11 40.036556 +02 19 07.04467
 2018-Sep-26 14:40  m  00 11 39.734124 +02 19 10.19300
 2018-Sep-26 14:41  m  00 11 39.431776 +02 19 13.34134
 2018-Sep-26 14:42  m  00 11 39.129510 +02 19 16.48971
 2018-Sep-26 14:43  m  00 11 38.827328 +02 19 19.63809
 2018-Sep-26 14:44  m  00 11 38.525230 +02 19 22.78650
 2018-Sep-26 14:45  m  00 11 38.223215 +02 19 25.93492
 2018-Sep-26 14:46  m  00 11 37.921284 +02 19 29.08336
 2018-Sep-26 14:47  m  00 11 37.619438 +02 19 32.23182
 2018-Sep-26 14:48  m  00 11 37.317675 +02 19 35.38030
 2018-Sep-26 14:49  m  00 11 37.015997 +02 19 38.52881
 2018-Sep-26 14:50  m  00 11 36.714403 +02 19 41.67733
 2018-Sep-26 14:51  m  00 11 36.412895 +02 19 44.82587
 2018-Sep-26 14:52  m  00 11 36.111471 +02 19 47.97444
 2018-Sep-26 14:53  m  00 11 35.810132 +02 19 51.12302
 2018-Sep-26 14:54  m  00 11 35.508878 +02 19 54.27163
 2018-Sep-26 14:55  m  00 11 35.207709 +02 19 57.42025
 2018-Sep-26 14:56  m  00 11 34.906626 +02 20 00.56890
 2018-Sep-26 14:57  m  00 11 34.605629 +02 20 03.71757
 2018-Sep-26 14:58  m  00 11 34.304717 +02 20 06.86627
 2018-Sep-26 14:59 Am  00 11 34.003891 +02 20 10.01498
 2018-Sep-26 15:00 Am  00 11 33.703151 +02 20 13.16372
 2018-Sep-26 15:01 Am  00 11 33.402497 +02 20 16.31248
 2018-Sep-26 15:02 Am  00 11 33.101930 +02 20 19.46127
 2018-Sep-26 15:03 Am  00 11 32.801449 +02 20 22.61007
 2018-Sep-26 15:04 Am  00 11 32.501054 +02 20 25.75890
 2018-Sep-26 15:05 Am  00 11 32.200746 +02 20 28.90776
 2018-Sep-26 15:06 Am  00 11 31.900525 +02 20 32.05664
 2018-Sep-26 15:07 Am  00 11 31.600391 +02 20 35.20554
 2018-Sep-26 15:08 Am  00 11 31.300344 +02 20 38.35447
 2018-Sep-26 15:09 Am  00 11 31.000384 +02 20 41.50342
 2018-Sep-26 15:10 Am  00 11 30.700511 +02 20 44.65240
 2018-Sep-26 15:11 Am  00 11 30.400726 +02 20 47.80140
 2018-Sep-26 15:12 Am  00 11 30.101028 +02 20 50.95043
 2018-Sep-26 15:13 Am  00 11 29.801418 +02 20 54.09948
 2018-Sep-26 15:14 Am  00 11 29.501896 +02 20 57.24856
 2018-Sep-26 15:15 Am  00 11 29.202461 +02 21 00.39766
 2018-Sep-26 15:16 Am  00 11 28.903115 +02 21 03.54680
 2018-Sep-26 15:17 Am  00 11 28.603857 +02 21 06.69595
 2018-Sep-26 15:18 Am  00 11 28.304687 +02 21 09.84514
 2018-Sep-26 15:19 Am  00 11 28.005605 +02 21 12.99435
 2018-Sep-26 15:20 Am  00 11 27.706611 +02 21 16.14359
 2018-Sep-26 15:21 Am  00 11 27.407706 +02 21 19.29286
 2018-Sep-26 15:22 Am  00 11 27.108890 +02 21 22.44215
 2018-Sep-26 15:23 Am  00 11 26.810162 +02 21 25.59148
 2018-Sep-26 15:24 Am  00 11 26.511523 +02 21 28.74083
 2018-Sep-26 15:25 Nm  00 11 26.212973 +02 21 31.89021
 2018-Sep-26 15:26 Nm  00 11 25.914512 +02 21 35.03962
 2018-Sep-26 15:27 Nm  00 11 25.616140 +02 21 38.18906
 2018-Sep-26 15:28 Nm  00 11 25.317858 +02 21 41.33852
 2018-Sep-26 15:29 Nm  00 11 25.019664 +02 21 44.48802
 2018-Sep-26 15:30 Nm  00 11 24.721560 +02 21 47.63755
 2018-Sep-26 15:31 Nm  00 11 24.423545 +02 21 50.78710
 2018-Sep-26 15:32 Nm  00 11 24.125620 +02 21 53.93669
 2018-Sep-26 15:33 Nm  00 11 23.827784 +02 21 57.08631
 2018-Sep-26 15:34 Nm  00 11 23.530038 +02 22 00.23596
 2018-Sep-26 15:35 Nm  00 11 23.232382 +02 22 03.38564
 2018-Sep-26 15:36 Nm  00 11 22.934815 +02 22 06.53535
 2018-Sep-26 15:37 Nm  00 11 22.637339 +02 22 09.68509
 2018-Sep-26 15:38 Nm  00 11 22.339952 +02 22 12.83486
 2018-Sep-26 15:39 Nm  00 11 22.042655 +02 22 15.98467
 2018-Sep-26 15:40 Nm  00 11 21.745448 +02 22 19.13451
 2018-Sep-26 15:41 Nm  00 11 21.448332 +02 22 22.28438
 2018-Sep-26 15:42 Nm  00 11 21.151305 +02 22 25.43428
 2018-Sep-26 15:43 Nm  00 11 20.854369 +02 22 28.58422
 2018-Sep-26 15:44 Nm  00 11 20.557524 +02 22 31.73419
 2018-Sep-26 15:45 Nm  00 11 20.260768 +02 22 34.88419
 2018-Sep-26 15:46 Nm  00 11 19.964103 +02 22 38.03423
 2018-Sep-26 15:47 Nm  00 11 19.667529 +02 22 41.18430
 2018-Sep-26 15:48 Nm  00 11 19.371045 +02 22 44.33441
 2018-Sep-26 15:49 Nm  00 11 19.074651 +02 22 47.48455
 2018-Sep-26 15:50 Cm  00 11 18.778349 +02 22 50.63473
 2018-Sep-26 15:51 Cm  00 11 18.482136 +02 22 53.78494
 2018-Sep-26 15:52 Cm  00 11 18.186015 +02 22 56.93519
 2018-Sep-26 15:53 Cm  00 11 17.889985 +02 23 00.08547
 2018-Sep-26 15:54 Cm  00 11 17.594045 +02 23 03.23579
 2018-Sep-26 15:55 Cm  00 11 17.298196 +02 23 06.38614
 2018-Sep-26 15:56 Cm  00 11 17.002438 +02 23 09.53653
 2018-Sep-26 15:57 Cm  00 11 16.706770 +02 23 12.68696
 2018-Sep-26 15:58 Cm  00 11 16.411194 +02 23 15.83743
 2018-Sep-26 15:59 Cm  00 11 16.115709 +02 23 18.98793
 2018-Sep-26 16:00 Cm  00 11 15.820315 +02 23 22.13847
 2018-Sep-26 16:01 Cm  00 11 15.525011 +02 23 25.28904
 2018-Sep-26 16:02 Cm  00 11 15.229799 +02 23 28.43966
